spkid,full_name,diameter,class,e,q,i,om,w,ma,epoch
2001232,Asteroid 1232,56.103261165108975,CEN,0.45068279282193985,0.9883182724195274,36.077752085987484,202.87232258829988,118.57743460271746,223.943923746979,59000
2001233,Asteroid 1233,30.313611642257555,MBA,0.12359623819130211,31.924261623816804,33.1771269366981,170.15657172421442,154.03333042141662,287.6077849931821,59000
2001234,Asteroid 1234,,TNO,0.3294144278219262,9.220172576055194,9.965403616669622,265.5755309496251,337.77537509969045,124.23308808720493,59000
2001235,Asteroid 1235,,MBA,0.4476930407767598,16.00056358765527,2.3368460920369083,194.30573791851145,281.99313046772096,24.825743095254932,59000
2001236,Asteroid 1236,87.28984830335983,TNO,0.3448572700959264,14.743088600538986,10.964386526185033,336.0709089071456,40.84326176428599,4.210518413540099,59000
2001237,Asteroid 1237,,MBA,0.495278349943642,0.5551451483766846,39.78089530289731,98.77807591662526,21.710340349845726,267.0123454877563,59000
2001238,Asteroid 1238,,APO,0.04293631353335703,19.135190198075723,7.965782781518365,255.46764356737518,4.272287774747521,205.73884324926405,59000
2001239,Asteroid 1239,65.50600634008696,MBA,0.07626755418520642,30.494682643763767,37.27961494665526,353.66322883275774,8.453747405572575,354.0425821927402,59000
2001240,Asteroid 1240,,APO,0.4362512259536638,11.738939669573414,15.536524294287254,252.85520791942167,44.58478526504554,152.24046357158898,59000
2001241,Asteroid 1241,55.718162171354216,MBA,0.11901231621497549,15.738507667579148,14.109837580746078,73.77486580724279,211.10198306960478,275.7689845893832,59000
2001242,Asteroid 1242,36.07969053167704,ATE,0.2449903181285733,23.478021949059446,16.38786783964823,10.271941011071606,143.49398485597632,172.25272947951964,59000
2001243,Asteroid 1243,79.29565225297941,CEN,0.2735690056290768,37.665033499732324,26.124272736259194,8.779479195175659,111.98900415314816,101.43245730435841,59000
2001244,Asteroid 1244,,APO,0.3487663122387354,1.1337005136867366,38.67621060472122,307.50774901196684,51.141550796601194,140.72194772592866,59000
2001245,Asteroid 1245,,ATE,0.11520210244723078,10.394859852338048,39.09418592286026,87.50772080289818,34.92302756923563,3.279233664561918,59000
2001246,Asteroid 1246,57.79338537078607,TNO,0.41824512334558245,35.345860326537306,3.855052318040273,217.97808002174878,145.45361809714166,79.94390086511153,59000
2001247,Asteroid 1247,15.668096572307551,APO,0.18918161384846166,9.849651652619185,19.85475176328759,149.18669931113925,229.73087808610703,294.0026388755515,59000
2001248,Asteroid 1248,68.57520472674459,APO,0.0885110312679599,19.34362254377546,18.95747676290696,173.65633512153636,214.53201598937838,83.44119782716201,59000
2001249,Asteroid 1249,21.003671136949176,APO,0.4818837962938029,8.57370761262893,24.946978939961532,180.53877708670876,263.75695630122345,219.69236859766363,59000
2001250,Asteroid 1250,,ATE,0.11737363227914399,30.171721491044757,36.786556140302615,230.33518567791052,91.20402196169064,193.50113171723396,59000
2001251,Asteroid 1251,,APO,0.4640226044230148,1.2604832608123966,23.299019207594135,70.8122916024995,125.43363494291452,203.76703994207892,59000
2001252,Asteroid 1252,70.71816698912866,CEN,0.1134094011416355,1.7355406157104423,33.685700233520805,301.2956039309603,339.4673688873552,209.62189433738104,59000
2001253,Asteroid 1253,28.491210397185075,ATE,0.35587764151530077,37.76668875881249,17.098021065995503,359.54884674819584,9.704160629057439,306.4010596957255,59000
2001254,Asteroid 1254,95.67731311948523,ATE,0.13459720783323015,5.777101106038268,35.46222634495263,44.73596117370013,164.70014459522244,5.082802766299794,59000
2001255,Asteroid 1255,19.908058616451104,MBA,0.04999887281619281,39.88627285178901,38.83428850931451,308.7428015116017,326.2232800595311,200.32776772281915,59000
2001256,Asteroid 1256,48.526555404552305,MBA,0.15599337184702777,39.43888997747971,36.53412795749329,37.38787855701822,276.8010574163798,331.59236592363106,59000
2001257,Asteroid 1257,,ATE,0.2224954723690719,29.55050061613859,34.47596218240286,257.23688414812074,82.73926774702478,135.933104288112,59000
2001258,Asteroid 1258,,CEN,0.3720913355664317,15.567952771182286,8.315507180649004,317.4037209258268,355.7151028522297,79.43563498050443,59000
2001259,Asteroid 1259,,APO,0.4737795791465276,25.22314077905537,26.389737589052785,17.223708560573897,8.055998186754024,196.34455403614848,59000
2001260,Asteroid 1260,,CEN,0.22441339139247518,27.407557897494204,35.11609300088374,143.12397887177406,195.3595514411242,173.3354393632446,59000
2001261,Asteroid 1261,36.08049195254184,CEN,0.0373049822162303,6.063698203835037,29.16540560348669,246.20605437192637,336.54435377433816,136.78757051044863,59000
2001262,Asteroid 1262,19.35071574765566,APO,0.3285221546246854,23.454889063054214,35.34332253855853,285.1685099262251,234.88090419992392,105.53915012844664,59000
2001263,Asteroid 1263,,APO,0.05311400632134561,5.870806666953868,25.535610181411165,175.17671476387034,153.3269873605633,83.13765476963484,59000
2001264,Asteroid 1264,89.2077173098906,MBA,0.14210814270433486,15.776128266921086,38.20933260546438,125.29339783531452,291.1639489831491,344.2838988468294,59000
2001265,Asteroid 1265,88.88285392558596,CEN,0.4608930590195061,19.700659086293573,7.913106658905185,106.83842947017102,251.482698279271,265.95914188742955,59000
2001266,Asteroid 1266,64.96773657956278,MBA,0.28621746804520437,4.727944072723929,13.993896809524076,273.9529079311894,100.54840598426337,16.388586933507323,59000
2001267,Asteroid 1267,,MBA,0.10140191462492149,0.6422109418048755,2.86388375760398,15.272009269414406,159.51456973418425,229.68347316052078,59000
2001268,Asteroid 1268,,ATE,0.4528391500939768,32.96587966913721,8.344301915994023,17.02428451991041,76.09485757791383,345.47116437999006,59000
2001269,Asteroid 1269,72.43744254417466,ATE,0.22996820844976973,18.19969492910925,0.9495375453322952,351.4533916426872,130.8232458429194,65.81995761697306,59000
2001270,Asteroid 1270,55.52225981759711,CEN,0.17653587571618956,20.314603593133892,12.14024054809193,25.35483856939004,338.6755064700724,140.8388002863733,59000
2001271,Asteroid 1271,73.75852954577793,MBA,0.46608072254627914,34.815806296848656,14.140380147726233,58.56025023096397,145.5613318676753,269.29541989884405,59000
2001272,Asteroid 1272,,MBA,0.09866027906715363,32.87554076824794,23.984999995598177,255.95011375299526,198.72071057833418,219.03345037967355,59000
2001273,Asteroid 1273,,APO,0.23476465625849757,13.366507170423352,16.155874090014585,267.48206359311496,166.70735463076653,225.99408546196673,59000
2001274,Asteroid 1274,,ATE,0.173166316748388,14.022862889955912,14.13378255045612,259.35825897131144,106.18744312232704,31.682514508473588,59000
2001275,Asteroid 1275,95.63344747779999,APO,0.1620646642030691,28.093462708737707,13.355075060361834,63.543036041145,287.403918443145,338.3100248199832,59000
2001276,Asteroid 1276,85.03397871370974,MBA,0.2571015783457853,31.410921635811935,1.0580912598663295,307.97714147722616,296.9239347792578,47.51515420354862,59000
2001277,Asteroid 1277,10.369929324034048,TNO,0.46397771926863396,17.47259930915244,21.54563463913231,98.48368561632641,165.35089604238337,36.136532995943305,59000
2001278,Asteroid 1278,,TNO,0.024184266515161368,19.908650156076554,31.731469386639,100.4176679845246,34.38433802119315,298.2549409556108,59000
2001279,Asteroid 1279,,APO,0.3460344732465846,3.9127763783253906,21.698493465503475,223.507153281315,318.9606041127782,287.16538464683015,59000
2001280,Asteroid 1280,,TNO,0.38530154656935356,35.28342333934373,1.3208032478663245,5.28793211838722,235.28976317139438,255.0029380953266,59000
2001281,Asteroid 1281,64.15899120708453,APO,0.33682282631712823,24.559225331941676,15.797258001990894,34.2002961384675,22.94613893427477,117.80341279703289,59000
2001282,Asteroid 1282,77.79081216659944,APO,0.32277840026900634,4.393005651305263,38.024622582227806,46.4398142021212,310.58920474437815,283.8659468192022,59000
2001283,Asteroid 1283,,ATE,0.23391976640207146,4.6987508865942,13.22221874602032,230.8510298053254,186.9987526413706,97.74209529162299,59000
2001284,Asteroid 1284,,CEN,0.35864081774083256,16.101788839186796,35.21503041783415,116.043840791063,43.052856006272016,320.13606284739745,59000
2001285,Asteroid 1285,,ATE,0.3542292703973503,30.68542968756555,2.63162484037776,293.49611439114494,312.04453382764956,279.44264195959795,59000
2001286,Asteroid 1286,82.95814802062888,CEN,0.11967217234316502,12.02116680112105,25.54176534895128,45.27471500635828,199.0911234399451,306.33871854913144,59000
2001287,Asteroid 1287,,TNO,0.4781944814231572,3.446106668572061,2.437712432738315,27.705100651705095,191.77520941566848,40.31777124414373,59000
2001288,Asteroid 1288,,TNO,0.4718020151687031,2.5965203978566844,0.5023248658198076,292.50175563031615,312.85975555956185,163.71444730977768,59000
2001289,Asteroid 1289,,CEN,0.48863657788767634,32.90842602651928,38.2537375709255,199.81411486475025,24.35827482928935,176.37578007069303,59000
2001290,Asteroid 1290,,MBA,0.23639634005116233,38.41057450098595,39.69479624549673,282.96410862030746,126.3136767804361,155.5429105358183,59000
2001291,Asteroid 1291,,TNO,0.15870654138570556,33.45839663119743,31.13041709201639,32.858171542174894,299.5192325888151,174.28149233697533,59000
2001292,Asteroid 1292,,CEN,0.3712269515118621,8.070149592027072,28.42249416131896,200.48472226168067,200.47483795143023,226.45833881502253,59000
2001293,Asteroid 1293,,ATE,0.19099345504015142,8.760271769604797,35.59280746917541,306.91081070668787,306.51377596687473,19.2741968190362,59000
2001294,Asteroid 1294,,APO,0.037713592113523875,30.397472646671545,17.192071956003957,95.38024590282593,348.2194344135841,153.60665257379816,59000
2001295,Asteroid 1295,,TNO,0.47184237973208504,28.546901880337447,24.459671392032174,190.88072492990176,86.00929563971363,190.1514144675047,59000
2001296,Asteroid 1296,,CEN,0.24593933254120548,27.627574189557986,33.54677357705339,23.004671947777126,68.35908524383106,288.7253867419644,59000
